NORAD_CAT_ID,OBJECT_NAME,OBJECT_TYPE,EPOCH,MEAN_MOTION,ECCENTRICITY,INCLINATION,RA_OF_ASC_NODE,ARG_OF_PERICENTER,MEAN_ANOMALY,BSTAR,MEAN_MOTION_DOT,MEAN_MOTION_DDOT,TLE_LINE0,TLE_LINE1,TLE_LINE2,SEMIMAJOR_AXIS,PERIOD,APOGEE,PERIGEE,DECAYED
51759.0,STARLINK-3456,PAYLOAD,2023-06-17 12:55:29,15.08839439,0.0001169,53.2164,101.0163,76.8525,283.2598,-8.6962e-07,-3.02e-06,0.0,0 STARLINK-3456,1 51759U 22016AX  23168.53853297 -.00000302  00000-0 -86962-6 0  9994,2 51759  53.2164 101.0163 0001169  76.8525 283.2598 15.08839439 73324,6917.882,95.438,540.556,538.938,0.0
51759.0,STARLINK-3456,PAYLOAD,2023-06-18 12:46:15,15.08849749,0.0001111,53.2166,96.5563,77.8811,282.2305,-2.3189e-05,-6.57e-06,0.0,0 STARLINK-3456,1 51759U 22016AX  23169.53212665 -.00000657  00000-0 -23189-4 0  9996,2 51759  53.2166  96.5563 0001111  77.8811 282.2305 15.08849749 73470,6917.851,95.437,540.484,538.947,0.0
51759.0,STARLINK-3456,PAYLOAD,2023-06-18 19:07:49,15.08822047,0.0001204,53.2174,95.3655,84.2696,275.8434,0.00027182,4.039e-05,0.0,0 STARLINK-3456,1 51759U 22016AX  23169.79709537  .00004039  00000-0  27182-3 0  9995,2 51759  53.2174  95.3655 0001204  84.2696 275.8434 15.08822047 74647,6917.935,95.439,540.633,538.967,0.0
51759.0,STARLINK-3456,PAYLOAD,2023-06-18 22:18:34,15.08839441,0.0001408,53.2165,94.7726,75.814,284.3009,9.2698e-05,1.188e-05,0.0,0 STARLINK-3456,1 51759U 22016AX  23169.92957084  .00001188  00000-0  92698-4 0  9999,2 51759  53.2165  94.7726 0001408  75.8140 284.3009 15.08839441 74666,6917.882,95.438,540.721,538.773,0.0
51759.0,STARLINK-3456,PAYLOAD,2023-06-19 04:40:07,15.08843276,0.0001113,53.2163,93.5828,71.2591,288.8522,0.00017117,2.438e-05,0.0,0 STARLINK-3456,1 51759U 22016AX  23170.19452556  .00002438  00000-0  17117-3 0  9995,2 51759  53.2163  93.5828 0001113  71.2591 288.8522 15.08843276 73576,6917.87,95.437,540.505,538.965,0.0
51759.0,STARLINK-3456,PAYLOAD,2023-06-20 01:20:08,15.08839941,0.0001297,53.2169,89.7143,91.0397,269.0744,4.3234e-05,4e-06,0.0,0 STARLINK-3456,1 51759U 22016AX  23171.05565036  .00000400  00000-0  43234-4 0  9996,2 51759  53.2169  89.7143 0001297  91.0397 269.0744 15.08839941 74837,6917.881,95.438,540.643,538.848,0.0
51759.0,STARLINK-3456,PAYLOAD,2023-06-20 04:30:54,15.08826744,0.0001225,53.2169,89.1198,101.501,258.6119,0.00021331,3.107e-05,0.0,0 STARLINK-3456,1 51759U 22016AX  23171.18813287  .00003107  00000-0  21331-3 0  9994,2 51759  53.2169  89.1198 0001225 101.5010 258.6119 15.08826744 74850,6917.921,95.438,540.633,538.938,0.0
51759.0,STARLINK-3456,PAYLOAD,2023-06-21 01:10:55,15.08843456,0.000129,53.217,85.2539,84.3248,275.7891,-3.9988e-06,-3.52e-06,0.0,0 STARLINK-3456,1 51759U 22016AX  23172.04925018 -.00000352  00000-0 -39988-5 0  9996,2 51759  53.2170  85.2539 0001290  84.3248 275.7891 15.08843456 74981,6917.87,95.437,540.627,538.842,0.0
51759.0,STARLINK-3456,PAYLOAD,2023-06-21 10:43:14,15.08837314,0.0001436,53.2172,83.4713,76.045,284.0701,-4.877e-05,-1.064e-05,0.0,0 STARLINK-3456,1 51759U 22016AX  23172.44669606 -.00001064  00000-0 -48770-4 0  9997,2 51759  53.2172  83.4713 0001436  76.0450 284.0701 15.08837314 75049,6917.889,95.438,540.747,538.76,0.0
51759.0,STARLINK-3456,PAYLOAD,2023-06-21 18:40:10,15.08834976,0.0001287,53.2173,81.9856,89.3914,270.7226,-5.119e-05,-1.102e-05,0.0,0 STARLINK-3456,1 51759U 22016AX  23172.77789914 -.00001102  00000-0 -51190-4 0  9991,2 51759  53.2173  81.9856 0001287  89.3914 270.7226 15.08834976 73961,6917.896,95.438,540.651,538.87,0.0
51759.0,STARLINK-3456,PAYLOAD,2023-06-22 04:12:28,15.08842528,0.0001206,53.2178,80.2015,92.9918,267.1212,8.6939e-06,-1.49e-06,0.0,0 STARLINK-3456,1 51759U 22016AX  23173.17533229 -.00000149  00000-0  86939-5 0  9991,2 51759  53.2178  80.2015 0001206  92.9918 267.1212 15.08842528 75150,6917.873,95.437,540.572,538.903,0.0
51759.0,STARLINK-3456,PAYLOAD,2023-06-23 10:24:48,15.08841157,0.0001157,53.2176,74.5481,81.1652,278.9471,2.646e-05,1.33e-06,0.0,0 STARLINK-3456,1 51759U 22016AX  23174.43389644  .00000133  00000-0  26460-4 0  9995,2 51759  53.2176  74.5481 0001157  81.1652 278.9471 15.08841157 75346,6917.877,95.437,540.542,538.941,0.0
51759.0,STARLINK-3456,PAYLOAD,2023-06-24 16:37:08,15.08834892,0.0001202,53.2174,68.9001,86.0081,274.1049,4.6505e-05,4.52e-06,0.0,0 STARLINK-3456,1 51759U 22016AX  23175.69246235  .00000452  00000-0  46505-4 0  9998,2 51759  53.2174  68.9001 0001202  86.0081 274.1049 15.08834892 75538,6917.896,95.438,540.593,538.929,0.0
51759.0,STARLINK-3456,PAYLOAD,2023-06-25 02:09:26,15.08846918,0.0001069,53.2167,67.1168,92.7729,267.3385,3.7366e-05,3.07e-06,0.0,0 STARLINK-3456,1 51759U 22016AX  23176.08989454  .00000307  00000-0  37366-4 0  9993,2 51759  53.2167  67.1168 0001069  92.7729 267.3385 15.08846918 75594,6917.859,95.437,540.464,538.985,0.0
51759.0,STARLINK-3456,PAYLOAD,2023-06-25 10:06:23,15.08838717,0.0001046,53.217,65.6278,92.0229,268.0883,-7.3004e-08,-2.89e-06,0.0,0 STARLINK-3456,1 51759U 22016AX  23176.42110002 -.00000289  00000-0 -73004-7 0  9999,2 51759  53.2170  65.6278 0001046  92.0229 268.0883 15.08838717 75641,6917.884,95.438,540.473,539.026,0.0
51759.0,STARLINK-3456,PAYLOAD,2023-06-26 02:00:13,15.08847848,0.000109,53.2171,62.6553,94.3196,265.7921,9.281e-06,-1.4e-06,0.0,0 STARLINK-3456,1 51759U 22016AX  23177.08349422 -.00000140  00000-0  92810-5 0  9991,2 51759  53.2171  62.6553 0001090  94.3196 265.7921 15.08847848 75745,6917.856,95.437,540.475,538.967,0.0
51759.0,STARLINK-3456,PAYLOAD,2023-06-27 01:51:01,15.08842968,0.0001117,53.2171,58.1944,93.3721,266.7399,3.1674e-05,2.16e-06,0.0,0 STARLINK-3456,1 51759U 22016AX  23178.07709720  .00000216  00000-0  31674-4 0  9995,2 51759  53.2171  58.1944 0001117  93.3721 266.7399 15.08842968 75896,6917.871,95.437,540.509,538.964,0.0
51759.0,STARLINK-3456,PAYLOAD,2023-06-27 20:55:39,15.08833136,9.53e-05,53.2178,54.625,96.9822,263.1278,9.0893e-05,1.159e-05,0.0,0 STARLINK-3456,1 51759U 22016AX  23178.87198190  .00001159  00000-0  90893-4 0  9991,2 51759  53.2178  54.6250 0000953  96.9822 263.1278 15.08833136 76011,6917.901,95.438,540.426,539.107,0.0
51759.0,STARLINK-3456,PAYLOAD,2023-06-28 01:41:48,15.08845312,0.0001075,53.2177,53.7336,89.4394,270.6721,3.2585e-05,2.31e-06,0.0,0 STARLINK-3456,1 51759U 22016AX  23179.07069640  .00000231  00000-0  32585-4 0  9995,2 51759  53.2177  53.7336 0001075  89.4394 270.6721 15.08845312 76040,6917.864,95.437,540.473,538.985,0.0
51759.0,STARLINK-3456,PAYLOAD,2023-06-28 22:21:49,15.0883876,9.99e-05,53.2179,49.8706,97.5343,262.5763,2.5794e-05,1.23e-06,0.0,0 STARLINK-3456,1 51759U 22016AX  23179.93182250  .00000123  00000-0  25794-4 0  9997,2 51759  53.2179  49.8706 0000999  97.5343 262.5763 15.08838760 76176,6917.884,95.438,540.44,539.058,0.0
51759.0,STARLINK-3456,PAYLOAD,2023-06-30 14:06:29,15.0880023,8.71e-05,53.2183,42.4373,103.1841,256.9249,0.00051015,7.832e-05,0.0,0 STARLINK-3456,1 51759U 22016AX  23181.58784029  .00007832  00000-0  51015-3 0  9991,2 51759  53.2183  42.4373 0000871 103.1841 256.9249 15.08800230 76421,6918.002,95.44,540.47,539.264,0.0
51759.0,STARLINK-3456,PAYLOAD,2023-06-30 23:38:46,15.08840196,8.97e-05,53.218,40.6528,103.8078,256.3014,5.2596e-05,5.49e-06,0.0,0 STARLINK-3456,1 51759U 22016AX  23181.98526527  .00000549  00000-0  52596-4 0  9996,2 51759  53.2180  40.6528 0000897 103.8078 256.3014 15.08840196 76482,6917.88,95.438,540.365,539.124,0.0
51759.0,STARLINK-3456,PAYLOAD,2023-07-02 21:44:58,15.08840752,9.69e-05,53.2183,32.0271,96.7144,263.3959,3.5737e-05,2.81e-06,0.0,0 STARLINK-3456,1 51759U 22016AX  23183.90622836  .00000281  00000-0  35737-4 0  9991,2 51759  53.2183  32.0271 0000969  96.7144 263.3959 15.08840752 76775,6917.878,95.438,540.413,539.073,0.0
51759.0,STARLINK-3456,PAYLOAD,2023-07-03 23:11:07,15.08847471,9.76e-05,53.218,27.2696,92.938,267.1724,6.7499e-05,7.87e-06,0.0,0 STARLINK-3456,1 51759U 22016AX  23184.96606136  .00000787  00000-0  67499-4 0  9994,2 51759  53.2180  27.2696 0000976  92.9380 267.1724 15.08847471 76932,6917.858,95.437,540.398,539.047,0.0
51759.0,STARLINK-3456,PAYLOAD,2023-07-04 16:40:22,15.08841131,9.13e-05,53.2167,23.9989,86.1309,273.9787,2.4554e-05,1.03e-06,0.0,0 STARLINK-3456,1 51759U 22016AX  23185.69470626  .00000103  00000-0  24554-4 0  9995,2 51759  53.2167  23.9989 0000913  86.1309 273.9787 15.08841131 77046,6917.877,95.437,540.374,539.11,0.0
51759.0,STARLINK-3456,PAYLOAD,2023-07-05 16:31:10,15.08833144,8.14e-05,53.2173,19.5384,93.2041,266.9044,-4.7193e-05,-1.038e-05,0.0,0 STARLINK-3456,1 51759U 22016AX  23186.68831361 -.00001038  00000-0 -47193-4 0  9996,2 51759  53.2173  19.5384 0000814  93.2041 266.9044 15.08833144 77194,6917.901,95.438,540.329,539.203,0.0
51759.0,STARLINK-3456,PAYLOAD,2023-07-06 14:46:33,15.08844155,8.07e-05,53.2175,15.3765,82.6644,277.444,-2.2615e-05,-6.48e-06,0.0,0 STARLINK-3456,1 51759U 22016AX  23187.61566832 -.00000648  00000-0 -22615-4 0  9996,2 51759  53.2175  15.3765 0000807  82.6644 277.4440 15.08844155 77333,6917.868,95.437,540.291,539.174,0.0
51759.0,STARLINK-3456,PAYLOAD,2023-07-07 08:15:48,15.08831124,8.75e-05,53.2177,12.106,63.6345,296.4737,7.4465e-05,8.97e-06,0.0,0 STARLINK-3456,1 51759U 22016AX  23188.34431433  .00000897  00000-0  74465-4 0  9999,2 51759  53.2177  12.1060 0000875  63.6345 296.4737 15.08831124 77444,6917.908,95.438,540.378,539.167,0.0
51759.0,STARLINK-3456,PAYLOAD,2023-07-07 19:23:30,15.08837553,8.65e-05,53.2176,10.0244,72.5985,287.5101,9.7666e-05,1.267e-05,0.0,0 STARLINK-3456,1 51759U 22016AX  23188.80799109  .00001267  00000-0  97666-4 0  9997,2 51759  53.2176  10.0244 0000865  72.5985 287.5101 15.08837553 77518,6917.888,95.438,540.351,539.154,0.0
51759.0,STARLINK-3456,PAYLOAD,2023-07-09 04:46:36,15.08840197,7.71e-05,53.2177,3.7792,83.0131,277.0949,7.534e-06,-1.68e-06,0.0,0 STARLINK-3456,1 51759U 22016AX  23190.19903315 -.00000168  00000-0  75340-5 0  9994,2 51759  53.2177   3.7792 0000771  83.0131 277.0949 15.08840197 77727,6917.88,95.438,540.278,539.211,0.0
